start=new Date('2022-11-04T00:00:00.000Z').valueOf();
sats=[{"MEAN_ANOMALY":"241.6987","ELEMENT_SET_NO":"999","CENTER_NAME":"EARTH","OBJECT_TYPE":"PAYLOAD","TLE_LINE1":"1 45221U 20012AV  22307.81053389  .00000340  00000-0  41752-4 0  9990","MEAN_MOTION_DOT":"0.00000340","PERIAPSIS":"546.222","NORAD_CAT_ID":"45221","SEMIMAJOR_AXIS":"6925.345","RA_OF_ASC_NODE":"91.8517","BSTAR":"0.00004175200000","MEAN_ELEMENT_THEORY":"SGP4","ECCENTRICITY":"0.00014270","REV_AT_EPOCH":"15123","RCS_SIZE":"LARGE","REF_FRAME":"TEME","FILE":"3644033","OBJECT_ID":"2020-012AV","PERIOD":"95.592","CLASSIFICATION_TYPE":"U","MEAN_MOTION":"15.06401089","TLE_LINE2":"2 45221  53.0549  91.8517 0001427 118.4145 241.6987 15.06401089151234","COUNTRY_CODE":"US","DECAY_DATE":null,"APOAPSIS":"548.198","SITE":"AFETR","EPHEMERIS_TYPE":"0","OBJECT_NAME":"STARLINK-1189","ARG_OF_PERICENTER":"118.4145","INCLINATION":"53.0549","GP_ID":"216858654","MEAN_MOTION_DDOT":"0.0000000000000","LAUNCH_DATE":"2020-02-17","TIME_SYSTEM":"UTC","EPOCH":"2022-11-03T19:27:10.128096"},{"REF_FRAME":"TEME","RCS_SIZE":"LARGE","REV_AT_EPOCH":"15120","MEAN_ELEMENT_THEORY":"SGP4","ECCENTRICITY":"0.00014840","RA_OF_ASC_NODE":"92.7075","BSTAR":"0.00006632300000","SEMIMAJOR_AXIS":"6925.335","NORAD_CAT_ID":"45222","PERIAPSIS":"546.172","TLE_LINE1":"1 45222U 20012AW  22307.61886525  .00000707  00000-0  66323-4 0  9993","MEAN_MOTION_DOT":"0.00000707","OBJECT_TYPE":"PAYLOAD","CENTER_NAME":"EARTH","ELEMENT_SET_NO":"999","MEAN_ANOMALY":"254.3439","EPOCH":"2022-11-03T14:51:09.957600","TIME_SYSTEM":"UTC","MEAN_MOTION_DDOT":"0.0000000000000","LAUNCH_DATE":"2020-02-17","GP_ID":"216859400","INCLINATION":"53.0563","ARG_OF_PERICENTER":"105.7714","OBJECT_NAME":"STARLINK-1191","EPHEMERIS_TYPE":"0","SITE":"AFETR","APOAPSIS":"548.228","DECAY_DATE":null,"TLE_LINE2":"2 45222  53.0563  92.7075 0001484 105.7714 254.3439 15.06404402151206","COUNTRY_CODE":"US","MEAN_MOTION":"15.06404402","CLASSIFICATION_TYPE":"U","OBJECT_ID":"2020-012AW","PERIOD":"95.592","FILE":"3644033"},{"INCLINATION":"53.0546","GP_ID":"216858155","TIME_SYSTEM":"UTC","LAUNCH_DATE":"2020-02-17","MEAN_MOTION_DDOT":"0.0000000000000","EPOCH":"2022-11-03T18:32:43.347552","CLASSIFICATION_TYPE":"U","PERIOD":"95.592","OBJECT_ID":"2020-012AX","FILE":"3644033","DECAY_DATE":null,"COUNTRY_CODE":"US","TLE_LINE2":"2 45223  53.0546  91.9965 0001335 109.1458 250.9675 15.06408785151230","MEAN_MOTION":"15.06408785","ARG_OF_PERICENTER":"109.1458","OBJECT_NAME":"STARLINK-1212","EPHEMERIS_TYPE":"0","SITE":"AFETR","APOAPSIS":"548.111","RA_OF_ASC_NODE":"91.9965","BSTAR":"0.00019381000000","NORAD_CAT_ID":"45223","SEMIMAJOR_AXIS":"6925.322","RCS_SIZE":"LARGE","REV_AT_EPOCH":"15123","ECCENTRICITY":"0.00013350","MEAN_ELEMENT_THEORY":"SGP4","REF_FRAME":"TEME","ELEMENT_SET_NO":"999","MEAN_ANOMALY":"250.9675","CENTER_NAME":"EARTH","PERIAPSIS":"546.262","MEAN_MOTION_DOT":"0.00002607","TLE_LINE1":"1 45223U 20012AX  22307.77272393  .00002607  00000-0  19381-3 0  9995","OBJECT_TYPE":"PAYLOAD"},{"SEMIMAJOR_AXIS":"6925.326","NORAD_CAT_ID":"45225","RA_OF_ASC_NODE":"91.6292","BSTAR":"0.00016184000000","REF_FRAME":"TEME","MEAN_ELEMENT_THEORY":"SGP4","ECCENTRICITY":"0.00014550","RCS_SIZE":"LARGE","REV_AT_EPOCH":"15119","MEAN_ANOMALY":"250.6802","ELEMENT_SET_NO":"999","OBJECT_TYPE":"PAYLOAD","MEAN_MOTION_DOT":"0.00002130","TLE_LINE1":"1 45225U 20012AZ  22307.85845146  .00002130  00000-0  16184-3 0  9997","PERIAPSIS":"546.183","CENTER_NAME":"EARTH","GP_ID":"216857905","INCLINATION":"53.0547","EPOCH":"2022-11-03T20:36:10.206144","MEAN_MOTION_DDOT":"0.0000000000000","LAUNCH_DATE":"2020-02-17","TIME_SYSTEM":"UTC","FILE":"3644033","PERIOD":"95.592","OBJECT_ID":"2020-012AZ","CLASSIFICATION_TYPE":"U","APOAPSIS":"548.199","SITE":"AFETR","EPHEMERIS_TYPE":"0","OBJECT_NAME":"STARLINK-1215","ARG_OF_PERICENTER":"109.4345","MEAN_MOTION":"15.06407388","COUNTRY_CODE":"US","TLE_LINE2":"2 45225  53.0547  91.6292 0001455 109.4345 250.6802 15.06407388151196","DECAY_DATE":null},{"MEAN_ELEMENT_THEORY":"SGP4","ECCENTRICITY":"0.00014500","RCS_SIZE":"LARGE","REV_AT_EPOCH":"15026","REF_FRAME":"TEME","SEMIMAJOR_AXIS":"6925.299","NORAD_CAT_ID":"45226","RA_OF_ASC_NODE":"91.9063","BSTAR":"0.00108810000000","CENTER_NAME":"EARTH","OBJECT_TYPE":"PAYLOAD","MEAN_MOTION_DOT":"0.00015970","TLE_LINE1":"1 45226U 20012BA  22307.79948879  .00015970  00000-0  10881-2 0  9991","PERIAPSIS":"546.160","MEAN_ANOMALY":"237.8281","ELEMENT_SET_NO":"999","LAUNCH_DATE":"2020-02-17","MEAN_MOTION_DDOT":"0.0000000000000","TIME_SYSTEM":"UTC","EPOCH":"2022-11-03T19:11:15.831456","INCLINATION":"53.0537","GP_ID":"216837464","MEAN_MOTION":"15.06416223","COUNTRY_CODE":"US","TLE_LINE2":"2 45226  53.0537  91.9063 0001450 122.2848 237.8281 15.06416223150264","DECAY_DATE":null,"APOAPSIS":"548.168","SITE":"AFETR","ARG_OF_PERICENTER":"122.2848","EPHEMERIS_TYPE":"0","OBJECT_NAME":"STARLINK-1217","FILE":"3643988","PERIOD":"95.591","OBJECT_ID":"2020-012BA","CLASSIFICATION_TYPE":"U"},{"EPOCH":"2022-11-03T14:56:28.885920","MEAN_MOTION_DDOT":"0.0000000000000","LAUNCH_DATE":"2020-02-17","TIME_SYSTEM":"UTC","GP_ID":"216858900","INCLINATION":"53.0554","OBJECT_NAME":"STARLINK-1221","ARG_OF_PERICENTER":"121.2818","EPHEMERIS_TYPE":"0","APOAPSIS":"547.929","SITE":"AFETR","MEAN_MOTION":"15.06414243","DECAY_DATE":null,"TLE_LINE2":"2 45227  53.0554  92.7044 0001096 121.2818 238.8278 15.06414243151127","COUNTRY_CODE":"US","PERIOD":"95.591","OBJECT_ID":"2020-012BB","FILE":"3644033","CLASSIFICATION_TYPE":"U","REF_FRAME":"TEME","ECCENTRICITY":"0.00010960","MEAN_ELEMENT_THEORY":"SGP4","RCS_SIZE":"LARGE","REV_AT_EPOCH":"15112","NORAD_CAT_ID":"45227","SEMIMAJOR_AXIS":"6925.305","RA_OF_ASC_NODE":"92.7044","BSTAR":"0.00033735000000","TLE_LINE1":"1 45227U 20012BB  22307.62255655  .00004749  00000-0  33735-3 0  9993","MEAN_MOTION_DOT":"0.00004749","OBJECT_TYPE":"PAYLOAD","PERIAPSIS":"546.411","CENTER_NAME":"EARTH","MEAN_ANOMALY":"238.8278","ELEMENT_SET_NO":"999"},{"BSTAR":"0.00005690700000","RA_OF_ASC_NODE":"92.6819","NORAD_CAT_ID":"45228","SEMIMAJOR_AXIS":"6925.362","RCS_SIZE":"LARGE","REV_AT_EPOCH":"15109","ECCENTRICITY":"0.00014380","MEAN_ELEMENT_THEORY":"SGP4","REF_FRAME":"TEME","ELEMENT_SET_NO":"999","MEAN_ANOMALY":"262.8682","CENTER_NAME":"EARTH","PERIAPSIS":"546.231","OBJECT_TYPE":"PAYLOAD","MEAN_MOTION_DOT":"0.00000566","TLE_LINE1":"1 45228U 20012BC  22307.62623958  .00000566  00000-0  56907-4 0  9999","INCLINATION":"53.0561","GP_ID":"216857655","TIME_SYSTEM":"UTC","MEAN_MOTION_DDOT":"0.0000000000000","LAUNCH_DATE":"2020-02-17","EPOCH":"2022-11-03T15:01:47.099712","CLASSIFICATION_TYPE":"U","FILE":"3644033","PERIOD":"95.592","OBJECT_ID":"2020-012BC","TLE_LINE2":"2 45228  53.0561  92.6819 0001438  97.2470 262.8682 15.06395657151090","COUNTRY_CODE":"US","DECAY_DATE":null,"MEAN_MOTION":"15.06395657","SITE":"AFETR","APOAPSIS":"548.223","ARG_OF_PERICENTER":"97.2470","EPHEMERIS_TYPE":"0","OBJECT_NAME":"STARLINK-1222"},{"NORAD_CAT_ID":"45229","SEMIMAJOR_AXIS":"6925.345","RA_OF_ASC_NODE":"93.1502","BSTAR":"0.00013292000000","MEAN_ELEMENT_THEORY":"SGP4","ECCENTRICITY":"0.00012030","RCS_SIZE":"LARGE","REV_AT_EPOCH":"15025","REF_FRAME":"TEME","MEAN_ANOMALY":"263.6829","ELEMENT_SET_NO":"999","CENTER_NAME":"EARTH","TLE_LINE1":"1 45229U 20012BD  22307.52303509  .00001699  00000-0  13292-3 0  9993","MEAN_MOTION_DOT":"0.00001699","OBJECT_TYPE":"PAYLOAD","PERIAPSIS":"546.377","INCLINATION":"53.0547","GP_ID":"216837473","LAUNCH_DATE":"2020-02-17","MEAN_MOTION_DDOT":"0.0000000000000","TIME_SYSTEM":"UTC","EPOCH":"2022-11-03T12:33:10.231776","PERIOD":"95.592","OBJECT_ID":"2020-012BD","FILE":"3643921","CLASSIFICATION_TYPE":"U","MEAN_MOTION":"15.06401115","DECAY_DATE":null,"TLE_LINE2":"2 45229  53.0547  93.1502 0001203  96.4297 263.6829 15.06401115150254","COUNTRY_CODE":"US","OBJECT_NAME":"STARLINK-1226","ARG_OF_PERICENTER":"96.4297","EPHEMERIS_TYPE":"0","SITE":"AFETR","APOAPSIS":"548.043"},{"EPOCH":"2022-11-03T18:50:00.962304","LAUNCH_DATE":"2020-02-17","MEAN_MOTION_DDOT":"0.0000000000000","TIME_SYSTEM":"UTC","GP_ID":"216858655","INCLINATION":"53.0555","ARG_OF_PERICENTER":"70.9879","OBJECT_NAME":"STARLINK-1227","EPHEMERIS_TYPE":"0","SITE":"AFETR","APOAPSIS":"547.722","MEAN_MOTION":"15.06409174","DECAY_DATE":null,"COUNTRY_CODE":"US","TLE_LINE2":"2 45230  53.0555  91.9666 0000775  70.9879 289.1194 15.06409174151249","OBJECT_ID":"2020-012BE","PERIOD":"95.592","FILE":"3644033","CLASSIFICATION_TYPE":"U","REF_FRAME":"TEME","ECCENTRICITY":"0.00007750","MEAN_ELEMENT_THEORY":"SGP4","RCS_SIZE":"LARGE","REV_AT_EPOCH":"15124","NORAD_CAT_ID":"45230","SEMIMAJOR_AXIS":"6925.320","RA_OF_ASC_NODE":"91.9666","BSTAR":"0.00002350500000","TLE_LINE1":"1 45230U 20012BE  22307.78473336  .00000069  00000-0  23505-4 0  9998","MEAN_MOTION_DOT":"0.00000069","OBJECT_TYPE":"PAYLOAD","PERIAPSIS":"546.649","CENTER_NAME":"EARTH","MEAN_ANOMALY":"289.1194","ELEMENT_SET_NO":"999"},{"INCLINATION":"53.0555","GP_ID":"216859401","LAUNCH_DATE":"2020-02-17","MEAN_MOTION_DDOT":"0.0000000000000","TIME_SYSTEM":"UTC","EPOCH":"2022-11-03T12:42:25.693056","FILE":"3644033","OBJECT_ID":"2020-012BG","PERIOD":"95.592","CLASSIFICATION_TYPE":"U","MEAN_MOTION":"15.06399934","TLE_LINE2":"2 45232  53.0555  93.1040 0001391 104.4740 255.6403 15.06399934151193","COUNTRY_CODE":"US","DECAY_DATE":null,"SITE":"AFETR","APOAPSIS":"548.177","ARG_OF_PERICENTER":"104.4740","EPHEMERIS_TYPE":"0","OBJECT_NAME":"STARLINK-1235","SEMIMAJOR_AXIS":"6925.349","NORAD_CAT_ID":"45232","RA_OF_ASC_NODE":"93.1040","BSTAR":"0.00005970600000","MEAN_ELEMENT_THEORY":"SGP4","ECCENTRICITY":"0.00013910","REV_AT_EPOCH":"15119","RCS_SIZE":"LARGE","REF_FRAME":"TEME","MEAN_ANOMALY":"255.6403","ELEMENT_SET_NO":"999","CENTER_NAME":"EARTH","OBJECT_TYPE":"PAYLOAD","MEAN_MOTION_DOT":"0.00000608","TLE_LINE1":"1 45232U 20012BG  22307.52946404  .00000608  00000-0  59706-4 0  9994","PERIAPSIS":"546.250"}];
